{
  "type": "Feature",
  "properties": {
    "area_id": "lauro_muller"
  },
  "geometry": {
    "type": "Polygon",
    "coordinates": [
      [
        [
          -43.17460552100247,
          -22.961789868208058
        ],
        [
          -43.174647330860815,
          -22.961890004511858
        ],
        [
          -43.174699636709846,
          -22.96198581781221
        ],
        [
          -43.17476192506548,
          -22.962076367473287
        ],
        [
          -43.17483358443807,
          -22.96216076453242
        ],
        [
          -43.174913911335025,
          -22.962238180427626
        ],
        [
          -43.17500211716691,
          -22.962307855132398
        ],
        [
          -43.175097335989115,
          -22.96236910461752
        ],
        [
          -43.17519863300321,
          -22.962421327566858
        ],
        [
          -43.1753050137344,
          -22.9624640112812
        ],
        [
          -43.175415433795074,
          -22.962496736711966
        ],
        [
          -43.175528809138555,
          -22.962519182575527
        ],
        [
          -43.1756440267023,
          -22.962531128507703
        ],
        [
          -43.175759955336105,
          -22.96253245722738
        ],
        [
          -43.17587545690796,
          -22.962523155688082
        ],
        [
          -43.17598939747846,
          -22.962503315206142
        ],
        [
          -43.17610065843409,
          -22.962473130564142
        ],
        [
          -43.17620814747,
          -22.962432898098683
        ],
        [
          -43.17631080931439,
          -22.962383012790827
        ],
        [
          -43.176407636089266,
          -22.962323964388272
        ],
        [
          -43.176497677205695,
          -22.962256332596922
        ],
        [
          -43.17658004869654,
          -22.962180781389378
        ],
        [
          -43.17665394189488,
          -22.96209805248606
        ],
        [
          -43.18118923630817,
          -22.956474599285414
        ],
        [
          -43.181201702466765,
          -22.95645884710615
        ],
        [
          -43.18375473665338,
          -22.95317100159851
        ],
        [
          -43.183819052014776,
          -22.95307862334203
        ],
        [
          -43.18387293072502,
          -22.952980686236682
        ],
        [
          -43.18391581839194,
          -22.952878198059334
        ],
        [
          -43.18394727372492,
          -22.952772213415546
        ],
        [
          -43.183966973075044,
          -22.952663822887246
        ],
        [
          -43.183974713764364,
          -22.952554141810488
        ],
        [
          -43.183970416170354,
          -22.952444298798454
        ],
        [
          -43.18395412454405,
          -22.95233542412794
        ],
        [
          -43.18392600655351,
          -22.95222863810886
        ],
        [
          -43.183886351557376,
          -22.952125039556478
        ],
        [
          -43.18383556762624,
          -22.952025694484806
        ],
        [
          -43.18377417734272,
          -22.95193162513769
        ],
        [
          -43.18319621060073,
          -22.951139716629484
        ],
        [
          -43.183185287502454,
          -22.951125012589653
        ],
        [
          -43.182910452681455,
          -22.950761492859662
        ],
        [
          -43.1828302463782,
          -22.950667023751638
        ],
        [
          -43.182739237553335,
          -22.9505813610407
        ],
        [
          -43.18205299640273,
          -22.950003351249833
        ],
        [
          -43.181965216029866,
          -22.949936338021857
        ],
        [
          -43.18187082340993,
          -22.949877536396055
        ],
        [
          -43.18177071089395,
          -22.949827502253605
        ],
        [
          -43.18166582490254,
          -22.949786708591386
        ],
        [
          -43.18155715697921,
          -22.949755541050763
        ],
        [
          -43.17827616996525,
          -22.94897413959652
        ],
        [
          -43.17816602017299,
          -22.94895307457511
        ],
        [
          -43.17805419533157,
          -22.948941901983435
        ],
        [
          -43.177941728820194,
          -22.94894072506643
        ],
        [
          -43.17782965994702,
          -22.948949554698427
        ],
        [
          -43.17771902434555,
          -22.94896830928282
        ],
        [
          -43.17761084440496,
          -22.948996815506007
        ],
        [
          -43.17750611982284,
          -22.949034809938993
        ],
        [
          -43.17740581836749,
          -22.94908194147165
        ],
        [
          -43.17223065545481,
          -22.951810866693958
        ],
        [
          -43.17213240961463,
          -22.951868851185218
        ],
        [
          -43.17204087735807,
          -22.951935596476346
        ],
        [
          -43.171956966177376,
          -22.95201044083
        ],
        [
          -43.17188150801066,
          -22.952092642211017
        ],
        [
          -43.17181525099374,
          -22.95218138564283
        ],
        [
          -43.17175885204262,
          -22.9522757912872
        ],
        [
          -43.17171287034016,
          -22.95237492316677
        ],
        [
          -43.17167776179148,
          -22.952477798444484
        ],
        [
          -43.171653874503214,
          -22.95258339716759
        ],
        [
          -43.171641445331346,
          -22.952690672379568
        ],
        [
          -43.171640597531905,
          -22.952798560500042
        ],
        [
          -43.17165133953789,
          -22.95290599186948
        ],
        [
          -43.1716735648746,
          -22.953011901354323
        ],
        [
          -43.17225670028883,
          -22.95520198534788
        ],
        [
          -43.17228183710436,
          -22.95528276787022
        ],
        [
          -43.17460552100247,
          -22.961789868208058
        ]
      ]
    ]
  }
}