{
"type": "FeatureCollection",
"name": "fm_areas",
"crs": { "type": "name", "properties": { "name": "urn:ogc:def:crs:OGC:1.3:CRS84" } },
"features": [
{ "type": "Feature", "properties": { "fid": 2.0, "nome_subar": "Rodoviária - Terminal Gentileza - Estação Leopoldina" }, "geometry": { "type": "Polygon", "coordinates": [ [ [ -43.212505784137903, -22.8981544544583 ], [ -43.212892013103399, -22.8974590384457 ], [ -43.212097610344799, -22.896895021096299 ], [ -43.210707051436898, -22.89835988934 ], [ -43.209901211961203, -22.898383835677901 ], [ -43.200062171911398, -22.894300923987199 ], [ -43.199100363505003, -22.895019333779501 ], [ -43.199834717220703, -22.8951151214644 ], [ -43.200237636958498, -22.895276763029202 ], [ -43.2008030243326, -22.895510244949602 ], [ -43.201290427241297, -22.895863460043699 ], [ -43.2071473855272, -22.898371863346402 ], [ -43.207850870392001, -22.899198008650799 ], [ -43.208351270711603, -22.900155852950501 ], [ -43.208214797897199, -22.903627981833498 ], [ -43.208084823788198, -22.904699534693702 ], [ -43.208097821199097, -22.905214355961601 ], [ -43.208383764238803, -22.905699243973 ], [ -43.208780185271202, -22.906118281598602 ], [ -43.209345572645297, -22.9064235796247 ], [ -43.209189603714499, -22.909267008616499 ], [ -43.208946333103398, -22.9097516081432 ], [ -43.208366989655097, -22.909913318456699 ], [ -43.207576975861997, -22.909994173541101 ], [ -43.2067342944827, -22.9097516081432 ], [ -43.205733610344801, -22.9093149893332 ], [ -43.205417604827602, -22.9093311604253 ], [ -43.204276473793101, -22.909007738216602 ], [ -43.2018010972414, -22.908211504699 ], [ -43.200039765666403, -22.907715344846 ], [ -43.198678438519003, -22.907215110702001 ], [ -43.199063719787098, -22.907039352272299 ], [ -43.199173800149502, -22.906768954243301 ], [ -43.199151784077003, -22.906485035732601 ], [ -43.198988461949398, -22.906292753195199 ], [ -43.198680944448498, -22.906152661889202 ], [ -43.1984229714338, -22.906104825833498 ], [ -43.198171832141298, -22.9061560787503 ], [ -43.198000989085202, -22.906251750861699 ], [ -43.197852835801498, -22.906403916048902 ], [ -43.197746424784597, -22.906339696264901 ], [ -43.197766934098397, -22.906178288347601 ], [ -43.197706061985102, -22.9060557768553 ], [ -43.197560214000497, -22.9058366022354 ], [ -43.197273079226697, -22.905714396778102 ], [ -43.196928160757999, -22.9056467966609 ], [ -43.196597919671099, -22.905721156788001 ], [ -43.1964907364694, -22.905870770846601 ], [ -43.196436468473003, -22.906038876871701 ], [ -43.196421791091304, -22.9063227976368 ], [ -43.196722677415003, -22.906620235097598 ], [ -43.197482231915103, -22.906877113519599 ], [ -43.196968523557601, -22.908337255305199 ], [ -43.196054856550298, -22.910436181572901 ], [ -43.195597292966703, -22.911053573675101 ], [ -43.1953430035406, -22.911700253533901 ], [ -43.199324568842897, -22.912460557234201 ], [ -43.2006568034599, -22.912729925279798 ], [ -43.201508133873801, -22.912891545850201 ], [ -43.202169770344803, -22.912977692436002 ], [ -43.2027930034482, -22.913276849245001 ], [ -43.203179232413802, -22.913284934555001 ], [ -43.203521571724103, -22.913535578925799 ], [ -43.204399364827502, -22.914166230453599 ], [ -43.205255213103399, -22.914376446977499 ], [ -43.206466567586197, -22.914683685926001 ], [ -43.2070746257696, -22.914999960586702 ], [ -43.2075288406716, -22.915268146124301 ], [ -43.208611968514703, -22.9160297901573 ], [ -43.210219190475499, -22.916963066446701 ], [ -43.210274023858403, -22.916016410689899 ], [ -43.210328857241301, -22.9150697549331 ], [ -43.210276689899302, -22.914107851571298 ], [ -43.210224522557297, -22.9131459482095 ], [ -43.210073538865402, -22.912725643760201 ], [ -43.2096396390669, -22.9115177648596 ], [ -43.208755815125798, -22.910811414530102 ], [ -43.209535659779696, -22.910392391409001 ], [ -43.210094548448303, -22.90935081404 ], [ -43.210380491488102, -22.907123966616599 ], [ -43.213057958133, -22.907339469578599 ], [ -43.2135388623363, -22.906980297785001 ], [ -43.213954779485, -22.9066450699193 ], [ -43.214123745826697, -22.905818969141102 ], [ -43.215592453258203, -22.903520227446101 ], [ -43.215241523163897, -22.903400500248601 ], [ -43.214006769128602, -22.902897644864598 ], [ -43.213083952954797, -22.902478597287001 ], [ -43.210575452651497, -22.901544715170399 ], [ -43.210609751034397, -22.900790533948701 ], [ -43.210697530344802, -22.900467091369801 ], [ -43.211469988275802, -22.899804031671799 ], [ -43.212488228275802, -22.8989307285871 ], [ -43.212505784137903, -22.8981544544583 ] ] ] } },
{ "type": "Feature", "properties": { "fid": 9.0, "nome_subar": "Metrô Botafogo - Rua São Clemente - Rua Voluntários da Pátria" }, "geometry": { "type": "Polygon", "coordinates": [ [ [ -43.19635723, -22.952496122450398 ], [ -43.195781158793103, -22.952070569466802 ], [ -43.195423320689599, -22.951813463890598 ], [ -43.195025366206899, -22.9515593130707 ], [ -43.194293643448198, -22.9511869517051 ], [ -43.193736828103397, -22.9508914260823 ], [ -43.193029175172398, -22.9505545260849 ], [ -43.1929585703448, -22.950519062878499 ], [ -43.192766011724103, -22.9504688233202 ], [ -43.1925541972414, -22.950415628473401 ], [ -43.1915416598276, -22.950143743374301 ], [ -43.190813146379298, -22.9499634714312 ], [ -43.18984233, -22.9497388699859 ], [ -43.188877932241397, -22.949520178746599 ], [ -43.188728699310303, -22.9495172234572 ], [ -43.187241183965497, -22.949475849398301 ], [ -43.186122739310299, -22.9494256094526 ], [ -43.1850652715517, -22.9493517271457 ], [ -43.184264548620703, -22.949271934208902 ], [ -43.183815245172397, -22.9492276047792 ], [ -43.183130057413798, -22.949156677661499 ], [ -43.182719265689698, -22.949106437597401 ], [ -43.182526707069002, -22.949082795207801 ], [ -43.182372660172398, -22.949097571701799 ], [ -43.1822410784483, -22.949144856471701 ], [ -43.182048519827603, -22.949162588256101 ], [ -43.1818206587931, -22.949747735839502 ], [ -43.181708332931102, -22.9500521297939 ], [ -43.181563913965498, -22.9504451811687 ], [ -43.1814419601724, -22.950649094589899 ], [ -43.181571937241401, -22.950823455097701 ], [ -43.181896077586202, -22.951101249340901 ], [ -43.1822507063793, -22.951367222018 ], [ -43.182584474655201, -22.9515829550276 ], [ -43.183398034827597, -22.951958270539599 ], [ -43.183927571034502, -22.952185823532101 ], [ -43.184238874137897, -22.952336540238399 ], [ -43.185328435, -22.953294030686699 ], [ -43.185951041206899, -22.953873250013899 ], [ -43.1864950193103, -22.954281066215799 ], [ -43.187388812241402, -22.954694791541201 ], [ -43.188860281034501, -22.9553626597536 ], [ -43.1899209581034, -22.955835484813001 ], [ -43.190071795689597, -22.955888677528801 ], [ -43.1919684981034, -22.956751578662601 ], [ -43.192780453620699, -22.957088463227699 ], [ -43.193441571551702, -22.957310097352298 ], [ -43.194436457758599, -22.957658800973299 ], [ -43.194749365517197, -22.956798860757399 ], [ -43.195266064482702, -22.9552946910154 ], [ -43.195615879310303, -22.954396318397901 ], [ -43.1961999737931, -22.952859614563899 ], [ -43.1961999737931, -22.952723674538198 ], [ -43.19635723, -22.952496122450398 ] ] ] } },
{ "type": "Feature", "properties": { "fid": 10.0, "nome_subar": "Jardim de Alah" }, "geometry": { "type": "Polygon", "coordinates": [ [ [ -43.218375731954602, -22.980064493245798 ], [ -43.218464022088902, -22.978979683517 ], [ -43.218160367270997, -22.9788701817073 ], [ -43.217965961405099, -22.9788701817073 ], [ -43.217828437186498, -22.9789420422799 ], [ -43.217486485075298, -22.979215796492198 ], [ -43.217337810244302, -22.9793116103355 ], [ -43.2161967309166, -22.979910445316499 ], [ -43.214585082690803, -22.9804474388561 ], [ -43.213258388339703, -22.980509951717401 ], [ -43.213242718721403, -22.9808032809112 ], [ -43.213341959637397, -22.982221831139601 ], [ -43.213409861316798, -22.983308574797402 ], [ -43.213508504129102, -22.9848892276705 ], [ -43.213567974061398, -22.985891805632399 ], [ -43.213449034196699, -22.986168967510299 ], [ -43.214323922385503, -22.986203309491898 ], [ -43.214585082690803, -22.9862081179696 ], [ -43.2157263532252, -22.986323521385099 ], [ -43.217490491087801, -22.986535094057299 ], [ -43.217719694619198, -22.985193201789698 ], [ -43.217904205119801, -22.983621445673698 ], [ -43.218159238685402, -22.981375013400999 ], [ -43.218375731954602, -22.980064493245798 ] ] ] } },
{ "type": "Feature", "properties": { "fid": 11.0, "nome_subar": "Campo Grande: Estação de Trem - Calçadão" }, "geometry": { "type": "Polygon", "coordinates": [ [ [ -43.562557567932998, -22.902466677753299 ], [ -43.562892204796199, -22.901102633720701 ], [ -43.563182380945399, -22.899877397781299 ], [ -43.562500545977898, -22.899723578023298 ], [ -43.561345601032798, -22.899460802199901 ], [ -43.560594191068603, -22.899217253421298 ], [ -43.559035711142798, -22.898807065016101 ], [ -43.558891343024698, -22.898161336224401 ], [ -43.558668703035302, -22.896789753207798 ], [ -43.558583473664299, -22.8965510066161 ], [ -43.558632176162, -22.896288224647002 ], [ -43.558778283655002, -22.895704975043099 ], [ -43.5585365105416, -22.895680939978099 ], [ -43.558235598680902, -22.896627918315701 ], [ -43.557854675573999, -22.896988441326101 ], [ -43.556623198132598, -22.897475546449598 ], [ -43.554862950716398, -22.898392068453301 ], [ -43.554517917294298, -22.898405331126298 ], [ -43.5530036854882, -22.898204957936201 ], [ -43.549933392268201, -22.897634663390601 ], [ -43.548988043129597, -22.8973880487905 ], [ -43.548536283364299, -22.8972493278809 ], [ -43.548025962147896, -22.897033539517299 ], [ -43.547816814108401, -22.8969333519461 ], [ -43.547624397912003, -22.8970027125802 ], [ -43.547624397912003, -22.8972185009928 ], [ -43.548017596226302, -22.897411168928301 ], [ -43.548352233089503, -22.897781090597299 ], [ -43.548812358776502, -22.898582584086199 ], [ -43.549138629718101, -22.899414899235399 ], [ -43.5495652917187, -22.9005092317521 ], [ -43.550017052196999, -22.901718414470999 ], [ -43.550197947188401, -22.902314456294899 ], [ -43.550090105943497, -22.902452250537301 ], [ -43.5497631034591, -22.902349705998098 ], [ -43.549376962227498, -22.902317660813701 ], [ -43.549157800987899, -22.9024041827942 ], [ -43.549025608494198, -22.902509931806499 ], [ -43.550703057053603, -22.902821172826499 ], [ -43.551824090545402, -22.903229611653298 ], [ -43.552719244154503, -22.903576398370902 ], [ -43.553823545803098, -22.903861533452101 ], [ -43.5550867999617, -22.904524277541 ], [ -43.556107442394499, -22.9048941798101 ], [ -43.557144816670501, -22.905194724660799 ], [ -43.5591568208106, -22.905757281180701 ], [ -43.5602820372632, -22.906358366390101 ], [ -43.560691967420603, -22.906689732737998 ], [ -43.5612106545586, -22.907144396874202 ], [ -43.561645682480801, -22.907468055160798 ], [ -43.562917302560997, -22.907676120794299 ], [ -43.563109718757303, -22.907676120794299 ], [ -43.5630595232278, -22.907398699878701 ], [ -43.562766715972501, -22.906497077983101 ], [ -43.562206199226601, -22.905341143705702 ], [ -43.562122540010797, -22.905202430930199 ], [ -43.562398615423, -22.905032892900898 ], [ -43.563268671267302, -22.904570515379799 ], [ -43.564105263425397, -22.904146667933801 ], [ -43.563620039973699, -22.903753644573001 ], [ -43.562749984129397, -22.902944475243501 ], [ -43.562557567932998, -22.902466677753299 ] ] ] } },
{ "type": "Feature", "properties": { "fid": 12.0, "nome_subar": "Rio Sul" }, "geometry": { "type": "Polygon", "coordinates": [ [ [ -43.180370310356402, -22.955932912882201 ], [ -43.180915516108001, -22.954900569190201 ], [ -43.181537511402098, -22.9537480117882 ], [ -43.182007767258, -22.952781508125099 ], [ -43.1821359542989, -22.9525656669828 ], [ -43.182197901467497, -22.9526025155612 ], [ -43.1823154161562, -22.952535314294501 ], [ -43.182432615736502, -22.952477981420301 ], [ -43.182516852934803, -22.952511706643399 ], [ -43.1826487024626, -22.952596019664199 ], [ -43.182714627226503, -22.9526364898956 ], [ -43.182828164319901, -22.952538686815799 ], [ -43.182549815316797, -22.952343080443999 ], [ -43.182363028485703, -22.952187944155 ], [ -43.182271466313601, -22.952066533022201 ], [ -43.182249491392298, -22.951830455507501 ], [ -43.182256816366099, -22.951715789137399 ], [ -43.182099329430102, -22.9515066913889 ], [ -43.181883242703996, -22.951253750132199 ], [ -43.181696455872903, -22.950997435843 ], [ -43.181546293910699, -22.950818690064501 ], [ -43.1814437442779, -22.9507546113317 ], [ -43.181355844592801, -22.950771474159001 ], [ -43.1810436175859, -22.950828807756402 ], [ -43.180860493241802, -22.950983945603799 ], [ -43.180604119159902, -22.950977200483699 ], [ -43.180047421153603, -22.950781591854501 ], [ -43.179468748226, -22.9505859829424 ], [ -43.178970650009902, -22.950336412540601 ], [ -43.178677651059203, -22.9502015094291 ], [ -43.178128278026698, -22.9500193900151 ], [ -43.177870072701403, -22.949958683489299 ], [ -43.177437899249099, -22.9499856641708 ], [ -43.177012135148999, -22.950107077171001 ], [ -43.176612924078697, -22.950336412540601 ], [ -43.1760269261773, -22.950670297163299 ], [ -43.174146239162603, -22.951715789137399 ], [ -43.173482413415002, -22.952133983665 ], [ -43.1730392525021, -22.9524172759977 ], [ -43.172702303708803, -22.952633117376799 ], [ -43.1728597906448, -22.952855703438299 ], [ -43.173401838703597, -22.953975373223798 ], [ -43.173771749878803, -22.9546835933035 ], [ -43.173527278879298, -22.954838726730699 ], [ -43.173270904797498, -22.95499385998 ], [ -43.173300204692502, -22.955115268485802 ], [ -43.1734650166023, -22.9553412229148 ], [ -43.173684765815302, -22.955634625863802 ], [ -43.173834927777499, -22.955816737719001 ], [ -43.174010727148001, -22.955850462109701 ], [ -43.174369650862502, -22.955887558929799 ], [ -43.174629687431299, -22.956251781713899 ], [ -43.1748164742623, -22.9564844790903 ], [ -43.174900711460602, -22.956605886258298 ], [ -43.175124123160501, -22.956774507144001 ], [ -43.175171735489997, -22.956814976125301 ], [ -43.175310909991602, -22.956821720954402 ], [ -43.175409797137398, -22.956804858881199 ], [ -43.176054394828903, -22.9564305203141 ], [ -43.176138632027303, -22.9565552999515 ], [ -43.176296118963201, -22.956605886258298 ], [ -43.175450951397799, -22.957082707611601 ], [ -43.175221727214797, -22.957204478135001 ], [ -43.175697808210202, -22.957878273049701 ], [ -43.175874134504802, -22.958046044755498 ], [ -43.176179766748803, -22.9582084042727 ], [ -43.176338460413902, -22.958451943183 ], [ -43.176403113388602, -22.958630538105201 ], [ -43.176619037438599, -22.958780493481498 ], [ -43.175665481722902, -22.960492240827499 ], [ -43.175312620215401, -22.961165419605699 ], [ -43.175713695366198, -22.9614577800136 ], [ -43.177008021824001, -22.9589784954312 ], [ -43.177340497394397, -22.959060467437201 ], [ -43.177807846202299, -22.958354527671499 ], [ -43.177878376720102, -22.9581867563484 ], [ -43.177841688428103, -22.956852072680899 ], [ -43.177889300757599, -22.9562989957067 ], [ -43.178028475259097, -22.955894303805099 ], [ -43.178185962195101, -22.955752661353401 ], [ -43.178405711408097, -22.955705447169901 ], [ -43.178826897399702, -22.955749288912301 ], [ -43.1803202764265, -22.955874069178201 ], [ -43.180370310356402, -22.955932912882201 ] ] ] } },
{ "type": "Feature", "properties": { "fid": 14.0, "nome_subar": "Praia de Botafogo - Rua Marquês de Abrantes" }, "geometry": { "type": "Polygon", "coordinates": [ [ [ -43.182820391178097, -22.947789359143599 ], [ -43.184316198601103, -22.9479275627527 ], [ -43.185977095137602, -22.948065766220601 ], [ -43.1857969979228, -22.946462597314898 ], [ -43.186827554207603, -22.946287537491099 ], [ -43.186927608215797, -22.946167759586501 ], [ -43.1866174407903, -22.944251298695299 ], [ -43.1859971059393, -22.943606329792299 ], [ -43.185867035728599, -22.943514191126699 ], [ -43.184386236406901, -22.943698468395201 ], [ -43.1837859123575, -22.943772179232301 ], [ -43.183265631514701, -22.9429060743606 ], [ -43.182785372275198, -22.942380880409399 ], [ -43.182415172444799, -22.9420123220339 ], [ -43.182385156242297, -22.941920182283202 ], [ -43.182725339870302, -22.9410264234469 ], [ -43.1837358853534, -22.937331543369101 ], [ -43.182705329068703, -22.936926113979201 ], [ -43.1810044109288, -22.936133680302699 ], [ -43.180088916753498, -22.935709818525499 ], [ -43.178948301059798, -22.935193811092699 ], [ -43.177342434227697, -22.934493512145899 ], [ -43.176091759124901, -22.9339129984313 ], [ -43.174691003009698, -22.933212692860501 ], [ -43.1743007923777, -22.933212692860501 ], [ -43.1741006843612, -22.934871305448699 ], [ -43.173810527737402, -22.936244252722101 ], [ -43.173350279299498, -22.936907685341801 ], [ -43.172579863436198, -22.937534257608799 ], [ -43.171914504281503, -22.937930470928201 ], [ -43.171354201835399, -22.938197683907401 ], [ -43.171094061414003, -22.9383451115323 ], [ -43.170793899389302, -22.938962462967801 ], [ -43.170843926393403, -22.939404742862401 ], [ -43.171064045211502, -22.939856235431002 ], [ -43.171364207236202, -22.940519650351099 ], [ -43.1719044988806, -22.941007995367499 ], [ -43.172975076768701, -22.941781972539601 ], [ -43.173915584446, -22.9424914477264 ], [ -43.174555930098599, -22.943136421941901 ], [ -43.175136243346302, -22.9434404801491 ], [ -43.175941678112601, -22.943449694023499 ], [ -43.176501980558598, -22.943237774753499 ], [ -43.177172342413698, -22.9427402238593 ], [ -43.177732644859802, -22.942519089541499 ], [ -43.178202898698501, -22.942371666462201 ], [ -43.179103384772503, -22.9424269501358 ], [ -43.180464119284402, -22.943302271957801 ], [ -43.181399624261303, -22.9446659199386 ], [ -43.1817598186909, -22.945983485679999 ], [ -43.1817598186909, -22.946987775427399 ], [ -43.1817598186909, -22.947669582568199 ], [ -43.182019959112303, -22.947669582568199 ], [ -43.182820391178097, -22.947789359143599 ] ] ] } },
{ "type": "Feature", "properties": { "fid": 19.0, "nome_subar": "Estações São Francisco Xavier - Afonso Pena" }, "geometry": { "type": "Polygon", "coordinates": [ [ [ -43.227257206108803, -22.921152986200799 ], [ -43.227217730984201, -22.920617527496901 ], [ -43.227197993421903, -22.9203002176369 ], [ -43.2262362358397, -22.919566435739601 ], [ -43.225310364734398, -22.9188326498689 ], [ -43.224585457900098, -22.918224463973701 ], [ -43.223681118681, -22.9175832215412 ], [ -43.222184652592297, -22.9163800574498 ], [ -43.221244426896199, -22.915580145741501 ], [ -43.220971689671401, -22.915381819794298 ], [ -43.220655888674301, -22.9151372173929 ], [ -43.219981222907698, -22.914760396613602 ], [ -43.219039202887799, -22.914264578202499 ], [ -43.218974607229299, -22.914165414302602 ], [ -43.216496645996003, -22.912836611045201 ], [ -43.215280094427499, -22.912096177708101 ], [ -43.214598251365501, -22.911679682178601 ], [ -43.213693912146397, -22.911183852498901 ], [ -43.213593430010903, -22.911302851787401 ], [ -43.2133619622347, -22.912268064378999 ], [ -43.212271013335403, -22.9114747394642 ], [ -43.212235126858502, -22.911441684158699 ], [ -43.211266191980897, -22.9120102342909 ], [ -43.210125002013903, -22.912691169101802 ], [ -43.210073538865402, -22.912725643760201 ], [ -43.210224522557297, -22.9131459482095 ], [ -43.210276689899302, -22.914107851571298 ], [ -43.210328857241301, -22.9150697549331 ], [ -43.210274023858403, -22.916016410689899 ], [ -43.210219190475499, -22.916963066446701 ], [ -43.210051434736201, -22.918991306610099 ], [ -43.2116250567504, -22.919969685742501 ], [ -43.214002535848202, -22.921562842050601 ], [ -43.214583896774698, -22.921946254465102 ], [ -43.2148135702272, -22.922104907560701 ], [ -43.215145520138996, -22.9221445708056 ], [ -43.2166455748754, -22.922706465527099 ], [ -43.219633124081298, -22.924359083555 ], [ -43.220307789847901, -22.924696215157098 ], [ -43.2214077103663, -22.9252779304584 ], [ -43.222312049585398, -22.925714215295201 ], [ -43.223180502327601, -22.923988898868799 ], [ -43.223282778786903, -22.923750922465 ], [ -43.224050749393598, -22.924451629568502 ], [ -43.224289394465302, -22.9246697734931 ], [ -43.224590840871599, -22.9248879170664 ], [ -43.224899464573397, -22.925046566717299 ], [ -43.2251650245028, -22.9251391122611 ], [ -43.225516711976901, -22.925145722654701 ], [ -43.228052091573197, -22.924160770456101 ], [ -43.228080800754803, -22.922818844191799 ], [ -43.228095155345599, -22.921714885034401 ], [ -43.228188460185599, -22.921569452618598 ], [ -43.227257206108803, -22.921152986200799 ] ] ] } },
{ "type": "Feature", "properties": { "fid": 20.0, "nome_subar": "Presidente Vargas - Campo de Santana - Central do Brasil - Cinelândia" }, "geometry": { "type": "Polygon", "coordinates": [ [ [ -43.196722677415003, -22.906620235097598 ], [ -43.196421791091304, -22.9063227976368 ], [ -43.1955117096552, -22.9061919110143 ], [ -43.190841850344803, -22.904736471303 ], [ -43.185338087586203, -22.902941407478799 ], [ -43.184240846206897, -22.9025937121895 ], [ -43.179073779364103, -22.900989440093898 ], [ -43.178271479840802, -22.903435142272201 ], [ -43.176576299749598, -22.9078625883682 ], [ -43.175679254710097, -22.9075609618701 ], [ -43.1755539034381, -22.9077421336303 ], [ -43.174406155854797, -22.9109728668023 ], [ -43.176117139473803, -22.9122150085805 ], [ -43.176643390742697, -22.912484551913298 ], [ -43.177079794233997, -22.912985132388599 ], [ -43.177683057883698, -22.913678243816001 ], [ -43.177824247248502, -22.914140318100799 ], [ -43.178440346294998, -22.913883610164799 ], [ -43.178863914389503, -22.913460042070302 ], [ -43.179197634706398, -22.912340153699301 ], [ -43.180301582861603, -22.909373658778701 ], [ -43.1824599750747, -22.910126745717001 ], [ -43.1825735746649, -22.909878981093598 ], [ -43.180395596315499, -22.909120997621301 ], [ -43.180846983195501, -22.907802840929602 ], [ -43.181103691131497, -22.9075974745808 ], [ -43.181270551289998, -22.907552550691999 ], [ -43.181585018511598, -22.907501209104701 ], [ -43.181905903431698, -22.907141817994301 ], [ -43.182079181288501, -22.9070583879151 ], [ -43.182066345891698, -22.906846603867798 ], [ -43.182246041447002, -22.906551389741399 ], [ -43.182509167081399, -22.906333187995699 ], [ -43.183240784699201, -22.904600409427399 ], [ -43.1847411882759, -22.9052216196092 ], [ -43.187142745327101, -22.906143865892901 ], [ -43.185992043448302, -22.9083669556871 ], [ -43.188642978620699, -22.909094658011 ], [ -43.190280062758603, -22.909579790723701 ], [ -43.190534622758598, -22.9096525604809 ], [ -43.191544084827598, -22.910291315562201 ], [ -43.193387450344801, -22.911301997833501 ], [ -43.193510341379302, -22.911390937512699 ], [ -43.1953430035406, -22.911700253533901 ], [ -43.195597292966703, -22.911053573675101 ], [ -43.196054856550298, -22.910436181572901 ], [ -43.196968523557601, -22.908337255305199 ], [ -43.197482231915103, -22.906877113519599 ], [ -43.196722677415003, -22.906620235097598 ] ] ] } }
]
}
