{
  "type": "Feature",
  "properties": {
    "area_id": "praia_botafogo"
  },
  "geometry": {
    "type": "Polygon",
    "coordinates": [
      [
        [
          -43.1828203911781,
          -22.9477893591436
        ],
        [
          -43.1843161986011,
          -22.9479275627527
        ],
        [
          -43.1859770951376,
          -22.9480657662206
        ],
        [
          -43.1857969979228,
          -22.9464625973149
        ],
        [
          -43.1868275542076,
          -22.9462875374911
        ],
        [
          -43.1869276082158,
          -22.9461677595865
        ],
        [
          -43.1866174407903,
          -22.9442512986953
        ],
        [
          -43.1859971059393,
          -22.9436063297923
        ],
        [
          -43.1858670357286,
          -22.9435141911267
        ],
        [
          -43.1843862364069,
          -22.9436984683952
        ],
        [
          -43.1837859123575,
          -22.9437721792323
        ],
        [
          -43.1832656315147,
          -22.9429060743606
        ],
        [
          -43.1827853722752,
          -22.9423808804094
        ],
        [
          -43.1824151724448,
          -22.9420123220339
        ],
        [
          -43.1823851562423,
          -22.9419201822832
        ],
        [
          -43.1827253398703,
          -22.9410264234469
        ],
        [
          -43.1837358853534,
          -22.9373315433691
        ],
        [
          -43.1827053290687,
          -22.9369261139792
        ],
        [
          -43.1810044109288,
          -22.9361336803027
        ],
        [
          -43.1800889167535,
          -22.9357098185255
        ],
        [
          -43.1789483010598,
          -22.9351938110927
        ],
        [
          -43.1773424342277,
          -22.9344935121459
        ],
        [
          -43.1760917591249,
          -22.9339129984313
        ],
        [
          -43.1746910030097,
          -22.9332126928605
        ],
        [
          -43.1743007923777,
          -22.9332126928605
        ],
        [
          -43.1741006843612,
          -22.9348713054487
        ],
        [
          -43.1738105277374,
          -22.9362442527221
        ],
        [
          -43.1733502792995,
          -22.9369076853418
        ],
        [
          -43.1725798634362,
          -22.9375342576088
        ],
        [
          -43.1719145042815,
          -22.9379304709282
        ],
        [
          -43.1713542018354,
          -22.9381976839074
        ],
        [
          -43.171094061414,
          -22.9383451115323
        ],
        [
          -43.1707938993893,
          -22.9389624629678
        ],
        [
          -43.1708439263934,
          -22.9394047428624
        ],
        [
          -43.1710640452115,
          -22.939856235431
        ],
        [
          -43.1713642072362,
          -22.9405196503511
        ],
        [
          -43.1719044988806,
          -22.9410079953675
        ],
        [
          -43.1729750767687,
          -22.9417819725396
        ],
        [
          -43.173915584446,
          -22.9424914477264
        ],
        [
          -43.1745559300986,
          -22.9431364219419
        ],
        [
          -43.1751362433463,
          -22.9434404801491
        ],
        [
          -43.1759416781126,
          -22.9434496940235
        ],
        [
          -43.1765019805586,
          -22.9432377747535
        ],
        [
          -43.1771723424137,
          -22.9427402238593
        ],
        [
          -43.1777326448598,
          -22.9425190895415
        ],
        [
          -43.1782028986985,
          -22.9423716664622
        ],
        [
          -43.1791033847725,
          -22.9424269501358
        ],
        [
          -43.1804641192844,
          -22.9433022719578
        ],
        [
          -43.1813996242613,
          -22.9446659199386
        ],
        [
          -43.1817598186909,
          -22.94598348568
        ],
        [
          -43.1817598186909,
          -22.9469877754274
        ],
        [
          -43.1817598186909,
          -22.9476695825682
        ],
        [
          -43.1820199591123,
          -22.9476695825682
        ],
        [
          -43.1828203911781,
          -22.9477893591436
        ]
      ]
    ]
  }
}