{
  "type": "Feature",
  "properties": {
    "area_id": "jardim_de_alah"
  },
  "geometry": {
    "type": "Polygon",
    "coordinates": [
      [
        [
          -43.2183757319546,
          -22.9800644932458
        ],
        [
          -43.2184640220889,
          -22.978979683517
        ],
        [
          -43.218160367271,
          -22.9788701817073
        ],
        [
          -43.2179659614051,
          -22.9788701817073
        ],
        [
          -43.2178284371865,
          -22.9789420422799
        ],
        [
          -43.2174864850753,
          -22.9792157964922
        ],
        [
          -43.2173378102443,
          -22.9793116103355
        ],
        [
          -43.2161967309166,
          -22.9799104453165
        ],
        [
          -43.2145850826908,
          -22.9804474388561
        ],
        [
          -43.2132583883397,
          -22.9805099517174
        ],
        [
          -43.2132427187214,
          -22.9808032809112
        ],
        [
          -43.2133419596374,
          -22.9822218311396
        ],
        [
          -43.2134098613168,
          -22.9833085747974
        ],
        [
          -43.2135085041291,
          -22.9848892276705
        ],
        [
          -43.2135679740614,
          -22.9858918056324
        ],
        [
          -43.2134490341967,
          -22.9861689675103
        ],
        [
          -43.2143239223855,
          -22.9862033094919
        ],
        [
          -43.2145850826908,
          -22.9862081179696
        ],
        [
          -43.2157263532252,
          -22.9863235213851
        ],
        [
          -43.2174904910878,
          -22.9865350940573
        ],
        [
          -43.2177196946192,
          -22.9851932017897
        ],
        [
          -43.2179042051198,
          -22.9836214456737
        ],
        [
          -43.2181592386854,
          -22.981375013401
        ],
        [
          -43.2183757319546,
          -22.9800644932458
        ]
      ]
    ]
  }
}