{
  "type": "Feature",
  "properties": {
    "area_id": "campo_grande_calcadao"
  },
  "geometry": {
    "type": "Polygon",
    "coordinates": [
      [
        [
          -43.562557567933,
          -22.9024666777533
        ],
        [
          -43.5628922047962,
          -22.9011026337207
        ],
        [
          -43.5631823809454,
          -22.8998773977813
        ],
        [
          -43.5625005459779,
          -22.8997235780233
        ],
        [
          -43.5613456010328,
          -22.8994608021999
        ],
        [
          -43.5605941910686,
          -22.8992172534213
        ],
        [
          -43.5590357111428,
          -22.8988070650161
        ],
        [
          -43.5588913430247,
          -22.8981613362244
        ],
        [
          -43.5586687030353,
          -22.8967897532078
        ],
        [
          -43.5585834736643,
          -22.8965510066161
        ],
        [
          -43.558632176162,
          -22.896288224647
        ],
        [
          -43.558778283655,
          -22.8957049750431
        ],
        [
          -43.5585365105416,
          -22.8956809399781
        ],
        [
          -43.5582355986809,
          -22.8966279183157
        ],
        [
          -43.557854675574,
          -22.8969884413261
        ],
        [
          -43.5566231981326,
          -22.8974755464496
        ],
        [
          -43.5548629507164,
          -22.8983920684533
        ],
        [
          -43.5545179172943,
          -22.8984053311263
        ],
        [
          -43.5530036854882,
          -22.8982049579362
        ],
        [
          -43.5499333922682,
          -22.8976346633906
        ],
        [
          -43.5489880431296,
          -22.8973880487905
        ],
        [
          -43.5485362833643,
          -22.8972493278809
        ],
        [
          -43.5480259621479,
          -22.8970335395173
        ],
        [
          -43.5478168141084,
          -22.8969333519461
        ],
        [
          -43.547624397912,
          -22.8970027125802
        ],
        [
          -43.547624397912,
          -22.8972185009928
        ],
        [
          -43.5480175962263,
          -22.8974111689283
        ],
        [
          -43.5483522330895,
          -22.8977810905973
        ],
        [
          -43.5488123587765,
          -22.8985825840862
        ],
        [
          -43.5491386297181,
          -22.8994148992354
        ],
        [
          -43.5495652917187,
          -22.9005092317521
        ],
        [
          -43.550017052197,
          -22.901718414471
        ],
        [
          -43.5501979471884,
          -22.9023144562949
        ],
        [
          -43.5500901059435,
          -22.9024522505373
        ],
        [
          -43.5497631034591,
          -22.9023497059981
        ],
        [
          -43.5493769622275,
          -22.9023176608137
        ],
        [
          -43.5491578009879,
          -22.9024041827942
        ],
        [
          -43.5490256084942,
          -22.9025099318065
        ],
        [
          -43.5507030570536,
          -22.9028211728265
        ],
        [
          -43.5518240905454,
          -22.9032296116533
        ],
        [
          -43.5527192441545,
          -22.9035763983709
        ],
        [
          -43.5538235458031,
          -22.9038615334521
        ],
        [
          -43.5550867999617,
          -22.904524277541
        ],
        [
          -43.5561074423945,
          -22.9048941798101
        ],
        [
          -43.5571448166705,
          -22.9051947246608
        ],
        [
          -43.5591568208106,
          -22.9057572811807
        ],
        [
          -43.5602820372632,
          -22.9063583663901
        ],
        [
          -43.5606919674206,
          -22.906689732738
        ],
        [
          -43.5612106545586,
          -22.9071443968742
        ],
        [
          -43.5616456824808,
          -22.9074680551608
        ],
        [
          -43.562917302561,
          -22.9076761207943
        ],
        [
          -43.5631097187573,
          -22.9076761207943
        ],
        [
          -43.5630595232278,
          -22.9073986998787
        ],
        [
          -43.5627667159725,
          -22.9064970779831
        ],
        [
          -43.5622061992266,
          -22.9053411437057
        ],
        [
          -43.5621225400108,
          -22.9052024309302
        ],
        [
          -43.562398615423,
          -22.9050328929009
        ],
        [
          -43.5632686712673,
          -22.9045705153798
        ],
        [
          -43.5641052634254,
          -22.9041466679338
        ],
        [
          -43.5636200399737,
          -22.903753644573
        ],
        [
          -43.5627499841294,
          -22.9029444752435
        ],
        [
          -43.562557567933,
          -22.9024666777533
        ]
      ]
    ]
  }
}