{
  "type": "Feature",
  "properties": {
    "area_id": "bangu_calcadao"
  },
  "geometry": {
    "type": "Polygon",
    "coordinates": [
      [
        [
          -43.46981763521567,
          -22.881420636427244
        ],
        [
          -43.46993011977258,
          -22.8814230027028
        ],
        [
          -43.470042329215026,
          -22.881415342893124
        ],
        [
          -43.47015322506106,
          -22.881397727887293
        ],
        [
          -43.47026178098649,
          -22.881370320708204
        ],
        [
          -43.470366992323946,
          -22.881333375003813
        ],
        [
          -43.470467885361586,
          -22.881287232699542
        ],
        [
          -43.47056352635512,
          -22.881232320833643
        ],
        [
          -43.47065303016989,
          -22.881169147604805
        ],
        [
          -43.47073556847293,
          -22.881098297668608
        ],
        [
          -43.47081037739914,
          -22.881020426726383
        ],
        [
          -43.470876764620726,
          -22.880936255456525
        ],
        [
          -43.47339030772756,
          -22.877404375920097
        ],
        [
          -43.47344904446733,
          -22.877312242878652
        ],
        [
          -43.47349768872685,
          -22.877215191338
        ],
        [
          -43.47353576623254,
          -22.877114167577066
        ],
        [
          -43.473562905742284,
          -22.877010156603063
        ],
        [
          -43.47357884266438,
          -22.876904172547164
        ],
        [
          -43.47358342163645,
          -22.87679724877632
        ],
        [
          -43.47357659803922,
          -22.876690427817525
        ],
        [
          -43.47355843843063,
          -22.87658475119292
        ],
        [
          -43.47352911989574,
          -22.87648124926483
        ],
        [
          -43.47348892831918,
          -22.876380931189594
        ],
        [
          -43.47343825559677,
          -22.876284775078307
        ],
        [
          -43.47337759581365,
          -22.876193718460396
        ],
        [
          -43.47330754042619,
          -22.876108649142854
        ],
        [
          -43.47322877249465,
          -22.876030396554317
        ],
        [
          -43.4731420600229,
          -22.875959723658568
        ],
        [
          -43.471873126081974,
          -22.875024291495347
        ],
        [
          -43.47178148652949,
          -22.874963188343617
        ],
        [
          -43.47168391582275,
          -22.874910557596234
        ],
        [
          -43.47158132320715,
          -22.874866889705874
        ],
        [
          -43.471474664722834,
          -22.87483259160186
        ],
        [
          -43.471364934296076,
          -22.874807982898368
        ],
        [
          -43.47029432575125,
          -22.874618039736273
        ],
        [
          -43.4701844979892,
          -22.874603518507964
        ],
        [
          -43.47007367949885,
          -22.8745987055825
        ],
        [
          -43.4636996732822,
          -22.874602194577466
        ],
        [
          -43.46358290280896,
          -22.87460767176657
        ],
        [
          -43.463467306058924,
          -22.874623925434225
        ],
        [
          -43.463354038367676,
          -22.874650793131146
        ],
        [
          -43.46324423179424,
          -22.874688006325698
        ],
        [
          -43.463138983807475,
          -22.874735193087687
        ],
        [
          -43.463039346317935,
          -22.874791881805407
        ],
        [
          -43.462946315165084,
          -22.874857505898927
        ],
        [
          -43.46030355113398,
          -22.87692291106196
        ],
        [
          -43.46021867912274,
          -22.876996215756815
        ],
        [
          -43.46014206328958,
          -22.87707695202971
        ],
        [
          -43.46007445768645,
          -22.877164325289804
        ],
        [
          -43.46001652769226,
          -22.877257475624997
        ],
        [
          -43.45996884346396,
          -22.877355486264708
        ],
        [
          -43.45993187432463,
          -22.877457392602246
        ],
        [
          -43.45990598414371,
          -22.877562191688
        ],
        [
          -43.45989142775506,
          -22.87766885210014
        ],
        [
          -43.45988834844791,
          -22.87777632409551
        ],
        [
          -43.45993437420998,
          -22.879623782127975
        ],
        [
          -43.459942438596606,
          -22.879728236729296
        ],
        [
          -43.45996134610856,
          -22.879831482383224
        ],
        [
          -43.459990920210245,
          -22.879932554971894
        ],
        [
          -43.46003088475891,
          -22.88003051066757
        ],
        [
          -43.460080866582466,
          -22.880124434746357
        ],
        [
          -43.46014039896343,
          -22.880213450130196
        ],
        [
          -43.46020892599659,
          -22.880296725577374
        ],
        [
          -43.460285807779606,
          -22.8803734834451
        ],
        [
          -43.46037032638815,
          -22.880443006951577
        ],
        [
          -43.46046169257985,
          -22.880504646869767
        ],
        [
          -43.460559053164296,
          -22.880557827590387
        ],
        [
          -43.460661498970474,
          -22.880602052497377
        ],
        [
          -43.46076807333706,
          -22.880636908605734
        ],
        [
          -43.46087778104633,
          -22.880662070418357
        ],
        [
          -43.460989597618294,
          -22.880677302965896
        ],
        [
          -43.46749365532618,
          -22.8812674765951
        ],
        [
          -43.46752484216088,
          -22.881269915939406
        ],
        [
          -43.46981763521567,
          -22.881420636427244
        ]
      ]
    ]
  }
}