{
  "type": "Feature",
  "properties": {
    "area_id": "estacoes_sfx_afonso_pena"
  },
  "geometry": {
    "type": "Polygon",
    "coordinates": [
      [
        [
          -43.2272572061088,
          -22.9211529862008
        ],
        [
          -43.2272177309842,
          -22.9206175274969
        ],
        [
          -43.2271979934219,
          -22.9203002176369
        ],
        [
          -43.2262362358397,
          -22.9195664357396
        ],
        [
          -43.2253103647344,
          -22.9188326498689
        ],
        [
          -43.2245854579001,
          -22.9182244639737
        ],
        [
          -43.223681118681,
          -22.9175832215412
        ],
        [
          -43.2221846525923,
          -22.9163800574498
        ],
        [
          -43.2212444268962,
          -22.9155801457415
        ],
        [
          -43.2209716896714,
          -22.9153818197943
        ],
        [
          -43.2206558886743,
          -22.9151372173929
        ],
        [
          -43.2199812229077,
          -22.9147603966136
        ],
        [
          -43.2190392028878,
          -22.9142645782025
        ],
        [
          -43.2189746072293,
          -22.9141654143026
        ],
        [
          -43.216496645996,
          -22.9128366110452
        ],
        [
          -43.2152800944275,
          -22.9120961777081
        ],
        [
          -43.2145982513655,
          -22.9116796821786
        ],
        [
          -43.2136939121464,
          -22.9111838524989
        ],
        [
          -43.2135934300109,
          -22.9113028517874
        ],
        [
          -43.2133619622347,
          -22.912268064379
        ],
        [
          -43.2122710133354,
          -22.9114747394642
        ],
        [
          -43.2122351268585,
          -22.9114416841587
        ],
        [
          -43.2112661919809,
          -22.9120102342909
        ],
        [
          -43.2101250020139,
          -22.9126911691018
        ],
        [
          -43.2100735388654,
          -22.9127256437602
        ],
        [
          -43.2102245225573,
          -22.9131459482095
        ],
        [
          -43.2102766898993,
          -22.9141078515713
        ],
        [
          -43.2103288572413,
          -22.9150697549331
        ],
        [
          -43.2102740238584,
          -22.9160164106899
        ],
        [
          -43.2102191904755,
          -22.9169630664467
        ],
        [
          -43.2100514347362,
          -22.9189913066101
        ],
        [
          -43.2116250567504,
          -22.9199696857425
        ],
        [
          -43.2140025358482,
          -22.9215628420506
        ],
        [
          -43.2145838967747,
          -22.9219462544651
        ],
        [
          -43.2148135702272,
          -22.9221049075607
        ],
        [
          -43.215145520139,
          -22.9221445708056
        ],
        [
          -43.2166455748754,
          -22.9227064655271
        ],
        [
          -43.2196331240813,
          -22.924359083555
        ],
        [
          -43.2203077898479,
          -22.9246962151571
        ],
        [
          -43.2214077103663,
          -22.9252779304584
        ],
        [
          -43.2223120495854,
          -22.9257142152952
        ],
        [
          -43.2231805023276,
          -22.9239888988688
        ],
        [
          -43.2232827787869,
          -22.923750922465
        ],
        [
          -43.2240507493936,
          -22.9244516295685
        ],
        [
          -43.2242893944653,
          -22.9246697734931
        ],
        [
          -43.2245908408716,
          -22.9248879170664
        ],
        [
          -43.2248994645734,
          -22.9250465667173
        ],
        [
          -43.2251650245028,
          -22.9251391122611
        ],
        [
          -43.2255167119769,
          -22.9251457226547
        ],
        [
          -43.2280520915732,
          -22.9241607704561
        ],
        [
          -43.2280808007548,
          -22.9228188441918
        ],
        [
          -43.2280951553456,
          -22.9217148850344
        ],
        [
          -43.2281884601856,
          -22.9215694526186
        ],
        [
          -43.2272572061088,
          -22.9211529862008
        ]
      ]
    ]
  }
}