{
  "type": "Feature",
  "properties": {
    "area_id": "rio_sul"
  },
  "geometry": {
    "type": "Polygon",
    "coordinates": [
      [
        [
          -43.1803703103564,
          -22.9559329128822
        ],
        [
          -43.180915516108,
          -22.9549005691902
        ],
        [
          -43.1815375114021,
          -22.9537480117882
        ],
        [
          -43.182007767258,
          -22.9527815081251
        ],
        [
          -43.1821359542989,
          -22.9525656669828
        ],
        [
          -43.1821979014675,
          -22.9526025155612
        ],
        [
          -43.1823154161562,
          -22.9525353142945
        ],
        [
          -43.1824326157365,
          -22.9524779814203
        ],
        [
          -43.1825168529348,
          -22.9525117066434
        ],
        [
          -43.1826487024626,
          -22.9525960196642
        ],
        [
          -43.1827146272265,
          -22.9526364898956
        ],
        [
          -43.1828281643199,
          -22.9525386868158
        ],
        [
          -43.1825498153168,
          -22.952343080444
        ],
        [
          -43.1823630284857,
          -22.952187944155
        ],
        [
          -43.1822714663136,
          -22.9520665330222
        ],
        [
          -43.1822494913923,
          -22.9518304555075
        ],
        [
          -43.1822568163661,
          -22.9517157891374
        ],
        [
          -43.1820993294301,
          -22.9515066913889
        ],
        [
          -43.181883242704,
          -22.9512537501322
        ],
        [
          -43.1816964558729,
          -22.950997435843
        ],
        [
          -43.1815462939107,
          -22.9508186900645
        ],
        [
          -43.1814437442779,
          -22.9507546113317
        ],
        [
          -43.1813558445928,
          -22.950771474159
        ],
        [
          -43.1810436175859,
          -22.9508288077564
        ],
        [
          -43.1808604932418,
          -22.9509839456038
        ],
        [
          -43.1806041191599,
          -22.9509772004837
        ],
        [
          -43.1800474211536,
          -22.9507815918545
        ],
        [
          -43.179468748226,
          -22.9505859829424
        ],
        [
          -43.1789706500099,
          -22.9503364125406
        ],
        [
          -43.1786776510592,
          -22.9502015094291
        ],
        [
          -43.1781282780267,
          -22.9500193900151
        ],
        [
          -43.1778700727014,
          -22.9499586834893
        ],
        [
          -43.1774378992491,
          -22.9499856641708
        ],
        [
          -43.177012135149,
          -22.950107077171
        ],
        [
          -43.1766129240787,
          -22.9503364125406
        ],
        [
          -43.1760269261773,
          -22.9506702971633
        ],
        [
          -43.1741462391626,
          -22.9517157891374
        ],
        [
          -43.173482413415,
          -22.952133983665
        ],
        [
          -43.1730392525021,
          -22.9524172759977
        ],
        [
          -43.1727023037088,
          -22.9526331173768
        ],
        [
          -43.1728597906448,
          -22.9528557034383
        ],
        [
          -43.1734018387036,
          -22.9539753732238
        ],
        [
          -43.1737717498788,
          -22.9546835933035
        ],
        [
          -43.1735272788793,
          -22.9548387267307
        ],
        [
          -43.1732709047975,
          -22.95499385998
        ],
        [
          -43.1733002046925,
          -22.9551152684858
        ],
        [
          -43.1734650166023,
          -22.9553412229148
        ],
        [
          -43.1736847658153,
          -22.9556346258638
        ],
        [
          -43.1738349277775,
          -22.955816737719
        ],
        [
          -43.174010727148,
          -22.9558504621097
        ],
        [
          -43.1743696508625,
          -22.9558875589298
        ],
        [
          -43.1746296874313,
          -22.9562517817139
        ],
        [
          -43.1748164742623,
          -22.9564844790903
        ],
        [
          -43.1749007114606,
          -22.9566058862583
        ],
        [
          -43.1751241231605,
          -22.956774507144
        ],
        [
          -43.17517173549,
          -22.9568149761253
        ],
        [
          -43.1753109099916,
          -22.9568217209544
        ],
        [
          -43.1754097971374,
          -22.9568048588812
        ],
        [
          -43.1760543948289,
          -22.9564305203141
        ],
        [
          -43.1761386320273,
          -22.9565552999515
        ],
        [
          -43.1762961189632,
          -22.9566058862583
        ],
        [
          -43.1754509513978,
          -22.9570827076116
        ],
        [
          -43.1752217272148,
          -22.957204478135
        ],
        [
          -43.1756978082102,
          -22.9578782730497
        ],
        [
          -43.1758741345048,
          -22.9580460447555
        ],
        [
          -43.1761797667488,
          -22.9582084042727
        ],
        [
          -43.1763384604139,
          -22.958451943183
        ],
        [
          -43.1764031133886,
          -22.9586305381052
        ],
        [
          -43.1766190374386,
          -22.9587804934815
        ],
        [
          -43.1756654817229,
          -22.9604922408275
        ],
        [
          -43.1753126202154,
          -22.9611654196057
        ],
        [
          -43.1757136953662,
          -22.9614577800136
        ],
        [
          -43.177008021824,
          -22.9589784954312
        ],
        [
          -43.1773404973944,
          -22.9590604674372
        ],
        [
          -43.1778078462023,
          -22.9583545276715
        ],
        [
          -43.1778783767201,
          -22.9581867563484
        ],
        [
          -43.1778416884281,
          -22.9568520726809
        ],
        [
          -43.1778893007576,
          -22.9562989957067
        ],
        [
          -43.1780284752591,
          -22.9558943038051
        ],
        [
          -43.1781859621951,
          -22.9557526613534
        ],
        [
          -43.1784057114081,
          -22.9557054471699
        ],
        [
          -43.1788268973997,
          -22.9557492889123
        ],
        [
          -43.1803202764265,
          -22.9558740691782
        ],
        [
          -43.1803703103564,
          -22.9559329128822
        ]
      ]
    ]
  }
}