{
  "type": "Feature",
  "properties": {
    "area_id": "presidente_vargas"
  },
  "geometry": {
    "type": "Polygon",
    "coordinates": [
      [
        [
          -43.196722677415,
          -22.9066202350976
        ],
        [
          -43.1964217910913,
          -22.9063227976368
        ],
        [
          -43.1955117096552,
          -22.9061919110143
        ],
        [
          -43.1908418503448,
          -22.904736471303
        ],
        [
          -43.1853380875862,
          -22.9029414074788
        ],
        [
          -43.1842408462069,
          -22.9025937121895
        ],
        [
          -43.1790737793641,
          -22.9009894400939
        ],
        [
          -43.1782714798408,
          -22.9034351422722
        ],
        [
          -43.1765762997496,
          -22.9078625883682
        ],
        [
          -43.1756792547101,
          -22.9075609618701
        ],
        [
          -43.1755539034381,
          -22.9077421336303
        ],
        [
          -43.1744061558548,
          -22.9109728668023
        ],
        [
          -43.1761171394738,
          -22.9122150085805
        ],
        [
          -43.1766433907427,
          -22.9124845519133
        ],
        [
          -43.177079794234,
          -22.9129851323886
        ],
        [
          -43.1776830578837,
          -22.913678243816
        ],
        [
          -43.1778242472485,
          -22.9141403181008
        ],
        [
          -43.178440346295,
          -22.9138836101648
        ],
        [
          -43.1788639143895,
          -22.9134600420703
        ],
        [
          -43.1791976347064,
          -22.9123401536993
        ],
        [
          -43.1803015828616,
          -22.9093736587787
        ],
        [
          -43.1824599750747,
          -22.910126745717
        ],
        [
          -43.1825735746649,
          -22.9098789810936
        ],
        [
          -43.1803955963155,
          -22.9091209976213
        ],
        [
          -43.1808469831955,
          -22.9078028409296
        ],
        [
          -43.1811036911315,
          -22.9075974745808
        ],
        [
          -43.18127055129,
          -22.907552550692
        ],
        [
          -43.1815850185116,
          -22.9075012091047
        ],
        [
          -43.1819059034317,
          -22.9071418179943
        ],
        [
          -43.1820791812885,
          -22.9070583879151
        ],
        [
          -43.1820663458917,
          -22.9068466038678
        ],
        [
          -43.182246041447,
          -22.9065513897414
        ],
        [
          -43.1825091670814,
          -22.9063331879957
        ],
        [
          -43.1832407846992,
          -22.9046004094274
        ],
        [
          -43.1847411882759,
          -22.9052216196092
        ],
        [
          -43.1871427453271,
          -22.9061438658929
        ],
        [
          -43.1859920434483,
          -22.9083669556871
        ],
        [
          -43.1886429786207,
          -22.909094658011
        ],
        [
          -43.1902800627586,
          -22.9095797907237
        ],
        [
          -43.1905346227586,
          -22.9096525604809
        ],
        [
          -43.1915440848276,
          -22.9102913155622
        ],
        [
          -43.1933874503448,
          -22.9113019978335
        ],
        [
          -43.1935103413793,
          -22.9113909375127
        ],
        [
          -43.1953430035406,
          -22.9117002535339
        ],
        [
          -43.1955972929667,
          -22.9110535736751
        ],
        [
          -43.1960548565503,
          -22.9104361815729
        ],
        [
          -43.1969685235576,
          -22.9083372553052
        ],
        [
          -43.1974822319151,
          -22.9068771135196
        ],
        [
          -43.196722677415,
          -22.9066202350976
        ]
      ]
    ]
  }
}