{
  "type": "Feature",
  "properties": {
    "area_id": "rodoviaria_gentileza"
  },
  "geometry": {
    "type": "Polygon",
    "coordinates": [
      [
        [
          -43.2125057841379,
          -22.8981544544583
        ],
        [
          -43.2128920131034,
          -22.8974590384457
        ],
        [
          -43.2120976103448,
          -22.8968950210963
        ],
        [
          -43.2107070514369,
          -22.89835988934
        ],
        [
          -43.2099012119612,
          -22.8983838356779
        ],
        [
          -43.2000621719114,
          -22.8943009239872
        ],
        [
          -43.199100363505,
          -22.8950193337795
        ],
        [
          -43.1998347172207,
          -22.8951151214644
        ],
        [
          -43.2002376369585,
          -22.8952767630292
        ],
        [
          -43.2008030243326,
          -22.8955102449496
        ],
        [
          -43.2012904272413,
          -22.8958634600437
        ],
        [
          -43.2071473855272,
          -22.8983718633464
        ],
        [
          -43.207850870392,
          -22.8991980086508
        ],
        [
          -43.2083512707116,
          -22.9001558529505
        ],
        [
          -43.2082147978972,
          -22.9036279818335
        ],
        [
          -43.2080848237882,
          -22.9046995346937
        ],
        [
          -43.2080978211991,
          -22.9052143559616
        ],
        [
          -43.2083837642388,
          -22.905699243973
        ],
        [
          -43.2087801852712,
          -22.9061182815986
        ],
        [
          -43.2093455726453,
          -22.9064235796247
        ],
        [
          -43.2091896037145,
          -22.9092670086165
        ],
        [
          -43.2089463331034,
          -22.9097516081432
        ],
        [
          -43.2083669896551,
          -22.9099133184567
        ],
        [
          -43.207576975862,
          -22.9099941735411
        ],
        [
          -43.2067342944827,
          -22.9097516081432
        ],
        [
          -43.2057336103448,
          -22.9093149893332
        ],
        [
          -43.2054176048276,
          -22.9093311604253
        ],
        [
          -43.2042764737931,
          -22.9090077382166
        ],
        [
          -43.2018010972414,
          -22.908211504699
        ],
        [
          -43.2000397656664,
          -22.907715344846
        ],
        [
          -43.198678438519,
          -22.907215110702
        ],
        [
          -43.1990637197871,
          -22.9070393522723
        ],
        [
          -43.1991738001495,
          -22.9067689542433
        ],
        [
          -43.199151784077,
          -22.9064850357326
        ],
        [
          -43.1989884619494,
          -22.9062927531952
        ],
        [
          -43.1986809444485,
          -22.9061526618892
        ],
        [
          -43.1984229714338,
          -22.9061048258335
        ],
        [
          -43.1981718321413,
          -22.9061560787503
        ],
        [
          -43.1980009890852,
          -22.9062517508617
        ],
        [
          -43.1978528358015,
          -22.9064039160489
        ],
        [
          -43.1977464247846,
          -22.9063396962649
        ],
        [
          -43.1977669340984,
          -22.9061782883476
        ],
        [
          -43.1977060619851,
          -22.9060557768553
        ],
        [
          -43.1975602140005,
          -22.9058366022354
        ],
        [
          -43.1972730792267,
          -22.9057143967781
        ],
        [
          -43.196928160758,
          -22.9056467966609
        ],
        [
          -43.1965979196711,
          -22.905721156788
        ],
        [
          -43.1964907364694,
          -22.9058707708466
        ],
        [
          -43.196436468473,
          -22.9060388768717
        ],
        [
          -43.1964217910913,
          -22.9063227976368
        ],
        [
          -43.196722677415,
          -22.9066202350976
        ],
        [
          -43.1974822319151,
          -22.9068771135196
        ],
        [
          -43.1969685235576,
          -22.9083372553052
        ],
        [
          -43.1960548565503,
          -22.9104361815729
        ],
        [
          -43.1955972929667,
          -22.9110535736751
        ],
        [
          -43.1953430035406,
          -22.9117002535339
        ],
        [
          -43.1993245688429,
          -22.9124605572342
        ],
        [
          -43.2006568034599,
          -22.9127299252798
        ],
        [
          -43.2015081338738,
          -22.9128915458502
        ],
        [
          -43.2021697703448,
          -22.912977692436
        ],
        [
          -43.2027930034482,
          -22.913276849245
        ],
        [
          -43.2031792324138,
          -22.913284934555
        ],
        [
          -43.2035215717241,
          -22.9135355789258
        ],
        [
          -43.2043993648275,
          -22.9141662304536
        ],
        [
          -43.2052552131034,
          -22.9143764469775
        ],
        [
          -43.2064665675862,
          -22.914683685926
        ],
        [
          -43.2070746257696,
          -22.9149999605867
        ],
        [
          -43.2075288406716,
          -22.9152681461243
        ],
        [
          -43.2086119685147,
          -22.9160297901573
        ],
        [
          -43.2102191904755,
          -22.9169630664467
        ],
        [
          -43.2102740238584,
          -22.9160164106899
        ],
        [
          -43.2103288572413,
          -22.9150697549331
        ],
        [
          -43.2102766898993,
          -22.9141078515713
        ],
        [
          -43.2102245225573,
          -22.9131459482095
        ],
        [
          -43.2100735388654,
          -22.9127256437602
        ],
        [
          -43.2096396390669,
          -22.9115177648596
        ],
        [
          -43.2087558151258,
          -22.9108114145301
        ],
        [
          -43.2095356597797,
          -22.910392391409
        ],
        [
          -43.2100945484483,
          -22.90935081404
        ],
        [
          -43.2103804914881,
          -22.9071239666166
        ],
        [
          -43.213057958133,
          -22.9073394695786
        ],
        [
          -43.2135388623363,
          -22.906980297785
        ],
        [
          -43.213954779485,
          -22.9066450699193
        ],
        [
          -43.2141237458267,
          -22.9058189691411
        ],
        [
          -43.2155924532582,
          -22.9035202274461
        ],
        [
          -43.2152415231639,
          -22.9034005002486
        ],
        [
          -43.2140067691286,
          -22.9028976448646
        ],
        [
          -43.2130839529548,
          -22.902478597287
        ],
        [
          -43.2105754526515,
          -22.9015447151704
        ],
        [
          -43.2106097510344,
          -22.9007905339487
        ],
        [
          -43.2106975303448,
          -22.9004670913698
        ],
        [
          -43.2114699882758,
          -22.8998040316718
        ],
        [
          -43.2124882282758,
          -22.8989307285871
        ],
        [
          -43.2125057841379,
          -22.8981544544583
        ]
      ]
    ]
  }
}