{
  "type": "Feature",
  "properties": {
    "area_id": "metro_botafogo"
  },
  "geometry": {
    "type": "Polygon",
    "coordinates": [
      [
        [
          -43.19635723,
          -22.9524961224504
        ],
        [
          -43.1957811587931,
          -22.9520705694668
        ],
        [
          -43.1954233206896,
          -22.9518134638906
        ],
        [
          -43.1950253662069,
          -22.9515593130707
        ],
        [
          -43.1942936434482,
          -22.9511869517051
        ],
        [
          -43.1937368281034,
          -22.9508914260823
        ],
        [
          -43.1930291751724,
          -22.9505545260849
        ],
        [
          -43.1929585703448,
          -22.9505190628785
        ],
        [
          -43.1927660117241,
          -22.9504688233202
        ],
        [
          -43.1925541972414,
          -22.9504156284734
        ],
        [
          -43.1915416598276,
          -22.9501437433743
        ],
        [
          -43.1908131463793,
          -22.9499634714312
        ],
        [
          -43.18984233,
          -22.9497388699859
        ],
        [
          -43.1888779322414,
          -22.9495201787466
        ],
        [
          -43.1887286993103,
          -22.9495172234572
        ],
        [
          -43.1872411839655,
          -22.9494758493983
        ],
        [
          -43.1861227393103,
          -22.9494256094526
        ],
        [
          -43.1850652715517,
          -22.9493517271457
        ],
        [
          -43.1842645486207,
          -22.9492719342089
        ],
        [
          -43.1838152451724,
          -22.9492276047792
        ],
        [
          -43.1831300574138,
          -22.9491566776615
        ],
        [
          -43.1827192656897,
          -22.9491064375974
        ],
        [
          -43.182526707069,
          -22.9490827952078
        ],
        [
          -43.1823726601724,
          -22.9490975717018
        ],
        [
          -43.1822410784483,
          -22.9491448564717
        ],
        [
          -43.1820485198276,
          -22.9491625882561
        ],
        [
          -43.1818206587931,
          -22.9497477358395
        ],
        [
          -43.1817083329311,
          -22.9500521297939
        ],
        [
          -43.1815639139655,
          -22.9504451811687
        ],
        [
          -43.1814419601724,
          -22.9506490945899
        ],
        [
          -43.1815719372414,
          -22.9508234550977
        ],
        [
          -43.1818960775862,
          -22.9511012493409
        ],
        [
          -43.1822507063793,
          -22.951367222018
        ],
        [
          -43.1825844746552,
          -22.9515829550276
        ],
        [
          -43.1833980348276,
          -22.9519582705396
        ],
        [
          -43.1839275710345,
          -22.9521858235321
        ],
        [
          -43.1842388741379,
          -22.9523365402384
        ],
        [
          -43.185328435,
          -22.9532940306867
        ],
        [
          -43.1859510412069,
          -22.9538732500139
        ],
        [
          -43.1864950193103,
          -22.9542810662158
        ],
        [
          -43.1873888122414,
          -22.9546947915412
        ],
        [
          -43.1888602810345,
          -22.9553626597536
        ],
        [
          -43.1899209581034,
          -22.955835484813
        ],
        [
          -43.1900717956896,
          -22.9558886775288
        ],
        [
          -43.1919684981034,
          -22.9567515786626
        ],
        [
          -43.1927804536207,
          -22.9570884632277
        ],
        [
          -43.1934415715517,
          -22.9573100973523
        ],
        [
          -43.1944364577586,
          -22.9576588009733
        ],
        [
          -43.1947493655172,
          -22.9567988607574
        ],
        [
          -43.1952660644827,
          -22.9552946910154
        ],
        [
          -43.1956158793103,
          -22.9543963183979
        ],
        [
          -43.1961999737931,
          -22.9528596145639
        ],
        [
          -43.1961999737931,
          -22.9527236745382
        ],
        [
          -43.19635723,
          -22.9524961224504
        ]
      ]
    ]
  }
}